[{"OBJECT_NAME":"STARLINK-36230","OBJECT_ID":"2025-298A","EPOCH":"2026-03-09T22:51:12.218400","MEAN_MOTION":14.99139706,"ECCENTRICITY":0.00028238,"INCLINATION":70.002,"RA_OF_ASC_NODE":13.9185,"ARG_OF_PERICENTER":257.4246,"MEAN_ANOMALY":102.6598,"EPHEMERIS_TYPE":0,"CLASSIFICATION_TYPE":"U","NORAD_CAT_ID":67075,"ELEMENT_SET_NO":999,"REV_AT_EPOCH":1325,"BSTAR":0.00033799472,"MEAN_MOTION_DOT":4.027e-5,"MEAN_MOTION_DDOT":0},{"OBJECT_NAME":"CZ-6A DEB","OBJECT_ID":"2022-151MR","EPOCH":"2026-03-09T04:38:57.025248","MEAN_MOTION":14.83234999,"ECCENTRICITY":0.00930298,"INCLINATION":98.7155,"RA_OF_ASC_NODE":156.563,"ARG_OF_PERICENTER":210.5568,"MEAN_ANOMALY":149.0205,"EPHEMERIS_TYPE":0,"CLASSIFICATION_TYPE":"U","NORAD_CAT_ID":54591,"ELEMENT_SET_NO":999,"REV_AT_EPOCH":10171,"BSTAR":0.0039988964,"MEAN_MOTION_DOT":0.00035363,"MEAN_MOTION_DDOT":0}]
